{
  "last_updated": "2026-03-22T06:00:02.647475",
  "satellites": {
    "98592": {
      "name": "DUTHSat-2",
      "norad_id": "98592",
      "tle": "1 64530U 25135C   26080.77788940  .00019092  00000-0  77441-3 0  9997\n2 64530  97.4512 196.9256 0005988 132.7254 227.4489 15.24650054 41609",
      "epoch": "2026-03-21T18:40:09.644160",
      "fetched_at": "2026-03-22T06:00:02.761652",
      "source": "satnogs"
    },
    "98530": {
      "name": "LAMARR",
      "norad_id": "98530",
      "tle": "1 66673U 25276H   26026.90917087  .00034524  00000-0  16680-2 0  9998\n2 66673  97.4301 102.8338 0007597 141.5941 218.5835 15.18529012  8972",
      "epoch": "2026-01-26T21:49:12.363168",
      "fetched_at": "2026-01-28T06:00:02.884758",
      "source": "satnogs",
      "note": "Using previous TLE (fetch/manual failed today)"
    },
    "98529": {
      "name": "DIRAC",
      "norad_id": "98529",
      "tle": "1 66681U 25276R   26026.63281774  .00024563  00000-0  11745-2 0  9993\n2 66681  97.4280 102.5712 0006320 148.4115 211.7500 15.18972786  8932",
      "epoch": "2026-01-26T15:11:15.452736",
      "fetched_at": "2026-01-28T06:00:02.937152",
      "source": "satnogs",
      "note": "Using previous TLE (fetch/manual failed today)"
    },
    "98518": {
      "name": "MICE-1",
      "norad_id": "98518",
      "tle": "1 66684U 25276U   26080.16262768  .00004253  00000-0  20943-3 0  9991\n2 66684  97.4322 155.2793 0004050 311.1405  48.9479 15.18506664 17051",
      "epoch": "2026-03-21T03:54:11.031552",
      "fetched_at": "2026-03-22T06:00:02.887050",
      "source": "satnogs"
    }
  },
  "fetch_log": [
    {
      "norad_id": "98592",
      "name": "DUTHSat-2",
      "status": "success",
      "source": "satnogs",
      "timestamp": "2026-03-22T06:00:02.761658"
    },
    {
      "norad_id": "98530",
      "name": "LAMARR",
      "status": "fallback",
      "timestamp": "2026-03-22T06:00:02.807367"
    },
    {
      "norad_id": "98529",
      "name": "DIRAC",
      "status": "fallback",
      "timestamp": "2026-03-22T06:00:02.846908"
    },
    {
      "norad_id": "98518",
      "name": "MICE-1",
      "status": "success",
      "source": "satnogs",
      "timestamp": "2026-03-22T06:00:02.887055"
    }
  ]
}